IRIDIUM 57              
1 25273U 98019B   24285.91737332  .00002368  00000+0  81730-3 0  9992
2 25273  86.3934 249.1928 0002456  89.0232 271.1246 14.35479422389161
IRIDIUM 63              
1 25286U 98021B   24285.82498499  .00002483  00000+0  84700-3 0  9995
2 25286  86.4054 186.2077 0002359  78.6914 281.4548 14.36090230388196
IRIDIUM 69              
1 25319U 98026A   24285.82708112  .00003735  00000+0  11711-2 0  9995
2 25319  86.4040 200.2218 0004505 102.2730 257.8974 14.40388776387309
IRIDIUM 71              
1 25320U 98026B   24286.49697106  .00002180  00000+0  67736-3 0  9993
2 25320  86.4048 194.6839 0002935 129.7075 230.4384 14.40666273388174
IRIDIUM 73              
1 25344U 98032C   24285.86766323  .00003403  00000+0  85585-3 0  9995
2 25344  86.4449 152.2337 0002824  90.1367 270.0161 14.50994313394541
IRIDIUM 82              
1 25467U 98051A   24286.34887477  .00030778  00000+0  13359-2 0  9994
2 25467  86.3738 229.9352 0117197 145.9457 214.9378 15.16079805386209
